QZS-1R                  
1 49336U 21096A   24098.85604948 -.00000212  00000+0  00000+0 0  9994
2 49336  35.8002  91.5906 0751581 270.1043 277.7834  1.00282952  8981
